[{"OBJECT_NAME":"STARLINK-31098","OBJECT_ID":"2024-002M","EPOCH":"2026-03-09T17:45:03.434112","MEAN_MOTION":15.30191111,"ECCENTRICITY":0.00010746,"INCLINATION":53.1601,"RA_OF_ASC_NODE":229.6548,"ARG_OF_PERICENTER":91.4153,"MEAN_ANOMALY":268.697,"EPHEMERIS_TYPE":0,"CLASSIFICATION_TYPE":"U","NORAD_CAT_ID":58716,"ELEMENT_SET_NO":999,"REV_AT_EPOCH":12202,"BSTAR":3.5384507e-5,"MEAN_MOTION_DOT":6.89e-6,"MEAN_MOTION_DDOT":0},{"OBJECT_NAME":"GEOSCAN 4 (RS92S4)","OBJECT_ID":"2025-155S","EPOCH":"2026-03-09T21:50:07.724832","MEAN_MOTION":15.30369837,"ECCENTRICITY":0.00070968,"INCLINATION":97.4465,"RA_OF_ASC_NODE":37.7626,"ARG_OF_PERICENTER":154.7045,"MEAN_ANOMALY":205.4544,"EPHEMERIS_TYPE":0,"CLASSIFICATION_TYPE":"U","NORAD_CAT_ID":64892,"ELEMENT_SET_NO":999,"REV_AT_EPOCH":6562,"BSTAR":0.00068609503,"MEAN_MOTION_DOT":0.00020121,"MEAN_MOTION_DDOT":0}]
